0 FENGYUN 1C DEB
1 33745U 99025DJJ 13280.80140273  .00001262  00000-0  80785-3 0  3172
2 33745 098.9157 221.4504 0066615 160.0248 200.3550 14.04120022264694
0 FENGYUN 1C DEB
1 33745U 99025DJJ 13283.08167791  .00001629  00000-0  10344-2 0  3180
2 33745 098.9162 223.6874 0066733 153.7586 206.6987 14.04129733265017
0 FENGYUN 1C DEB
1 33745U 99025DJJ 13285.29068032  .00001733  00000-0  10983-2 0  3199
2 33745 098.9164 225.8556 0066938 147.6099 212.9203 14.04135707265321
0 FENGYUN 1C DEB
1 33745U 99025DJJ 13287.64218623  .00002372  00000-0  14928-2 0  3208
2 33745 098.9173 228.1637 0067200 140.9333 219.6715 14.04144293265655
0 FENGYUN 1C DEB
1 33745U 99025DJJ 13290.27870104  .00002520  00000-0  15839-2 0  3217
2 33745 098.9181 230.7513 0067404 133.5705 227.1085 14.04158124266027
0 FENGYUN 1C DEB
1 33745U 99025DJJ 13293.27146761  .00003029  00000-0  18977-2 0  3227
2 33745 098.9191 233.6878 0067391 125.2867 235.4628 14.04171529266441
